{"type": "FeatureCollection", "features": [{"type": "Feature", "geometry": {"type": "LineString", "coordinates": [[85.3695083, 28.1509049], [85.369329, 28.1508488]]}, "properties": {"bridge": "yes", "highway": "path", "layer": "1", "osm_id": "way/83925825", "status": "outside"}}, {"type": "Feature", "geometry": {"type": "LineString", "coordinates": [[85.408393, 28.1555141], [85.4083105, 28.1550677]]}, "properties": {"bridge": "yes", "highway": "path", "layer": "1", "osm_id": "way/83925833", "status": "outside"}}, {"type": "Feature", "geometry": {"type": "LineString", "coordinates": [[85.3436789, 28.1634067], [85.3437759, 28.1635939]]}, "properties": {"bridge": "yes", "layer": "1", "highway": "path", "osm_id": "way/83925838", "status": "at risk"}}, {"type": "Feature", "geometry": {"type": "LineString", "coordinates": [[85.3429566, 28.165756], [85.3425106, 28.1659756]]}, "properties": {"bridge": "yes", "layer": "1", "highway": "path", "osm_id": "way/83925870", "status": "at risk"}}, {"type": "Feature", "geometry": {"type": "LineString", "coordinates": [[85.3324711, 28.1576744], [85.3325784, 28.1570978]]}, "properties": {"bridge": "yes", "surface": "concrete", "layer": "1", "highway": "primary", "osm_id": "way/84566285", "status": "at risk"}}, {"type": "Feature", "geometry": {"type": "LineString", "coordinates": [[85.3991167, 28.1552893], [85.3989563, 28.1552467]]}, "properties": {"bridge": "yes", "highway": "path", "layer": "1", "osm_id": "way/84792447", "status": "outside"}}, {"type": "Feature", "geometry": {"type": "LineString", "coordinates": [[85.3717039, 28.1403948], [85.3711968, 28.1398339]]}, "properties": {"bridge": "yes", "highway": "path", "layer": "1", "osm_id": "way/119684550", "status": "outside"}}, {"type": "Feature", "geometry": {"type": "LineString", "coordinates": [[85.3578372, 28.1529968], [85.3576618, 28.1527491]]}, "properties": {"bridge": "yes", "highway": "path", "layer": "1", "osm_id": "way/121204108", "status": "at risk"}}, {"type": "Feature", "geometry": {"type": "LineString", "coordinates": [[85.3530926, 28.2000708], [85.3531018, 28.2005638]]}, "properties": {"bridge": "yes", "layer": "1", "highway": "primary", "osm_id": "way/245248450", "status": "at risk"}}, {"type": "Feature", "geometry": {"type": "LineString", "coordinates": [[85.3121551, 28.107417], [85.3119028, 28.1073039]]}, "properties": {"bridge": "yes", "highway": "primary", "layer": "1", "name": "Pasang Lhamu Highway", "osm_id": "way/246173481", "status": "outside"}}, {"type": "Feature", "geometry": {"type": "LineString", "coordinates": [[85.2973294, 28.1913693], [85.2973914, 28.1914322], [85.29757, 28.1916203]]}, "properties": {"bridge": "yes", "highway": "path", "layer": "1", "osm_id": "way/248646097", "status": "outside"}}, {"type": "Feature", "geometry": {"type": "LineString", "coordinates": [[85.3594165, 28.234269], [85.3597675, 28.234616]]}, "properties": {"bridge": "yes", "layer": "1", "highway": "path", "osm_id": "way/248646100", "status": "at risk"}}, {"type": "Feature", "geometry": {"type": "LineString", "coordinates": [[85.3758182, 28.2658136], [85.3762769, 28.2662977]]}, "properties": {"bridge": "yes", "highway": "primary", "layer": "1", "osm_id": "way/248646102", "status": "at risk"}}, {"type": "Feature", "geometry": {"type": "LineString", "coordinates": [[85.3000841, 28.1831261], [85.3006102, 28.1829247]]}, "properties": {"bridge": "yes", "highway": "path", "layer": "1", "osm_id": "way/341472761", "status": "outside"}}, {"type": "Feature", "geometry": {"type": "LineString", "coordinates": [[85.3420463, 28.1813703], [85.3423559, 28.1818305]]}, "properties": {"bridge": "yes", "layer": "1", "highway": "primary", "osm_id": "way/341557606", "status": "at risk"}}, {"type": "Feature", "geometry": {"type": "LineString", "coordinates": [[85.3431968, 28.1826648], [85.3438355, 28.182505]]}, "properties": {"bridge": "yes", "layer": "1", "highway": "primary", "osm_id": "way/341557608", "status": "at risk"}}, {"type": "Feature", "geometry": {"type": "LineString", "coordinates": [[85.3172858, 28.1813883], [85.3175551, 28.1807475]]}, "properties": {"bridge": "yes", "highway": "path", "layer": "1", "osm_id": "way/341732934", "status": "at risk"}}, {"type": "Feature", "geometry": {"type": "LineString", "coordinates": [[85.3030521, 28.1840576], [85.3030745, 28.1839849]]}, "properties": {"bridge": "yes", "highway": "path", "layer": "1", "osm_id": "way/341979564", "status": "at risk"}}, {"type": "Feature", "geometry": {"type": "LineString", "coordinates": [[85.3687422, 28.2025665], [85.3688287, 28.2026543]]}, "properties": {"bridge": "yes", "highway": "path", "layer": "1", "osm_id": "way/342027029", "status": "outside"}}, {"type": "Feature", "geometry": {"type": "LineString", "coordinates": [[85.3547724, 28.2105205], [85.3536978, 28.2107809]]}, "properties": {"bridge": "yes", "layer": "1", "highway": "footway", "name": "Out of order", "osm_id": "way/342039410", "status": "at risk"}}, {"type": "Feature", "geometry": {"type": "LineString", "coordinates": [[85.3174998, 28.1475187], [85.317883, 28.1473108]]}, "properties": {"bridge": "yes", "layer": "1", "highway": "path", "osm_id": "way/344134853", "status": "at risk"}}, {"type": "Feature", "geometry": {"type": "LineString", "coordinates": [[85.3538358, 28.2091204], [85.3549774, 28.2092663]]}, "properties": {"bridge": "yes", "highway": "footway", "layer": "1", "osm_id": "way/784422172", "status": "at risk"}}, {"type": "Feature", "geometry": {"type": "LineString", "coordinates": [[85.3432393, 28.182402], [85.3438407, 28.1822114]]}, "properties": {"bridge": "yes", "layer": "1", "highway": "path", "osm_id": "way/886704211", "status": "at risk"}}, {"type": "Feature", "geometry": {"type": "LineString", "coordinates": [[85.3618006, 28.2264317], [85.3617985, 28.2266834]]}, "properties": {"bridge": "yes", "layer": "1", "highway": "primary", "osm_id": "way/897866243", "status": "at risk"}}, {"type": "Feature", "geometry": {"type": "LineString", "coordinates": [[85.3716403, 28.2851769], [85.3715733, 28.2852324]]}, "properties": {"bridge": "yes", "highway": "trunk", "layer": "1", "osm_id": "way/904894048", "status": "at risk"}}, {"type": "Feature", "geometry": {"type": "LineString", "coordinates": [[85.3696296, 28.2860521], [85.3694948, 28.286069]]}, "properties": {"bridge": "yes", "highway": "trunk", "layer": "1", "osm_id": "way/904894050", "status": "at risk"}}, {"type": "Feature", "geometry": {"type": "LineString", "coordinates": [[85.3546064, 28.2871097], [85.3545052, 28.287096], [85.3544264, 28.287077], [85.3540329, 28.2869315]]}, "properties": {"bridge": "yes", "highway": "trunk", "layer": "1", "osm_id": "way/904894058", "status": "at risk"}}, {"type": "Feature", "geometry": {"type": "LineString", "coordinates": [[85.2848083, 28.2180361], [85.2849649, 28.217985]]}, "properties": {"bridge": "yes", "highway": "path", "layer": "1", "osm_id": "way/937405845", "status": "outside"}}, {"type": "Feature", "geometry": {"type": "LineString", "coordinates": [[85.3642275, 28.2519329], [85.3643247, 28.2520836]]}, "properties": {"bridge": "yes", "layer": "1", "highway": "unclassified", "osm_id": "way/937405880", "status": "at risk"}}, {"type": "Feature", "geometry": {"type": "LineString", "coordinates": [[85.2811236, 28.2173079], [85.2812231, 28.2176114]]}, "properties": {"bridge": "yes", "highway": "unclassified", "layer": "1", "osm_id": "way/937405899", "status": "outside"}}, {"type": "Feature", "geometry": {"type": "LineString", "coordinates": [[85.3014817, 28.183885], [85.3014675, 28.1836602]]}, "properties": {"bridge": "yes", "highway": "unclassified", "layer": "1", "osm_id": "way/937414837", "status": "at risk"}}, {"type": "Feature", "geometry": {"type": "LineString", "coordinates": [[85.3401547, 28.1640037], [85.3398138, 28.1644629]]}, "properties": {"bridge": "yes", "highway": "unclassified", "layer": "1", "osm_id": "way/1017959928", "status": "at risk"}}, {"type": "Feature", "geometry": {"type": "LineString", "coordinates": [[85.3581165, 28.2398432], [85.3585747, 28.2398534]]}, "properties": {"bridge": "yes", "layer": "1", "highway": "path", "osm_id": "way/1033190356", "status": "at risk"}}, {"type": "Feature", "geometry": {"type": "LineString", "coordinates": [[85.2983364, 28.1807866], [85.2983466, 28.1807478]]}, "properties": {"bridge": "yes", "highway": "path", "layer": "1", "osm_id": "way/1034129516", "status": "outside"}}, {"type": "Feature", "geometry": {"type": "LineString", "coordinates": [[85.3290188, 28.1795385], [85.3288482, 28.1797104]]}, "properties": {"bridge": "yes", "highway": "unclassified", "layer": "1", "osm_id": "way/1359685640", "status": "at risk"}}, {"type": "Feature", "geometry": {"type": "LineString", "coordinates": [[85.3579206, 28.2406634], [85.3580951, 28.240703], [85.3582316, 28.2407416], [85.3583204, 28.2407668], [85.3583992, 28.2407923]]}, "properties": {"bridge": "yes", "layer": "1", "highway": "unclassified", "osm_id": "way/1422414758", "status": "at risk"}}, {"type": "Feature", "geometry": {"type": "LineString", "coordinates": [[85.3651819, 28.2557625], [85.3655364, 28.2557059]]}, "properties": {"bridge": "yes", "layer": "1", "highway": "unclassified", "osm_id": "way/1422422619", "status": "at risk"}}, {"type": "Feature", "geometry": {"type": "LineString", "coordinates": [[85.3782131, 28.2782687], [85.3778577, 28.2791479]]}, "properties": {"layer": "1", "highway": "primary", "bridge": "yes", "osm_id": "way/1443180803", "status": "at risk"}}]}