{"type": "FeatureCollection", "features": [{"type": "Feature", "geometry": {"type": "Point", "coordinates": [85.337252, 28.1636668]}, "properties": {"name": "\u0938\u094d\u092f\u093e\u092a\u094d\u0930\u0941 \u092c\u0947\u0938\u0940", "place": "suburb", "name:ne": "\u0938\u094d\u092f\u093e\u092a\u094d\u0930\u0941 \u092c\u0947\u0938\u0940", "name:en": "Syabru Bensi", "osm_id": "node/267564991", "label": "Syabru Bensi", "hospital_min_before": 24, "hospital_min_after": null, "town_min_before": 53, "town_min_after": null, "status": "cut_off", "hospital_on_foot_min": null}}, {"type": "Feature", "geometry": {"type": "Point", "coordinates": [85.2768371, 28.1573925]}, "properties": {"name": "\u0917\u094b\u0926\u093e\u092e", "name:en": "Godam", "name:ne": "\u0917\u094b\u0926\u093e\u092e", "place": "hamlet", "osm_id": "node/269569475", "label": "Godam", "hospital_min_before": 56, "hospital_min_after": null, "town_min_before": 84, "town_min_after": null, "status": "cut_off", "hospital_on_foot_min": null}}, {"type": "Feature", "geometry": {"type": "Point", "coordinates": [85.3219356, 28.1665549]}, "properties": {"name": "\u092c\u093e\u0939\u0941\u0928\u0921\u093e\u0901\u0921\u093e", "name:en": "Bahun Danda", "name:ne": "\u092c\u093e\u0939\u0941\u0928\u0921\u093e\u0901\u0921\u093e", "place": "hamlet", "osm_id": "node/269569477", "label": "Bahun Danda", "hospital_min_before": 43, "hospital_min_after": null, "town_min_before": 72, "town_min_after": null, "status": "cut_off", "hospital_on_foot_min": null}}, {"type": "Feature", "geometry": {"type": "Point", "coordinates": [85.3121197, 28.129782]}, "properties": {"name:en": "Sano Bharkhu", "name": "\u0920\u0941\u0932\u094b \u092d\u093e\u0930\u094d\u0916\u0941", "name:ne": "\u0920\u0941\u0932\u094b \u092d\u093e\u0930\u094d\u0916\u0941", "place": "hamlet", "osm_id": "node/269569692", "label": "Sano Bharkhu", "hospital_min_before": 12, "hospital_min_after": 12, "town_min_before": 66, "town_min_after": 85, "status": "connected", "hospital_on_foot_min": 88}}, {"type": "Feature", "geometry": {"type": "Point", "coordinates": [85.3557436, 28.134476]}, "properties": {"name": "\u0926\u0941\u0930\u094d\u0938\u093e\u0917\u093e\u0919", "name:en": "Dursagang", "name:ne": "\u0926\u0941\u0930\u094d\u0938\u093e\u0917\u093e\u0919", "place": "hamlet", "osm_id": "node/601106206", "label": "Dursagang", "status": "no_mapped_road", "hospital_on_foot_min": 108}}, {"type": "Feature", "geometry": {"type": "Point", "coordinates": [85.3401621, 28.1108705]}, "properties": {"name": "\u091a\u0902\u0926\u0928 \u092c\u093e\u0921\u0940", "name:en": "Chandanbari", "name:ne": "\u091a\u0902\u0926\u0928 \u092c\u093e\u0921\u0940", "place": "hamlet", "osm_id": "node/601594281", "label": "Chandanbari", "status": "no_mapped_road", "hospital_on_foot_min": 198}}, {"type": "Feature", "geometry": {"type": "Point", "coordinates": [85.4221554, 28.1588218]}, "properties": {"name": "Rimche", "place": "isolated_dwelling", "osm_id": "node/632389884", "label": "Rimche", "status": "no_mapped_road", "hospital_on_foot_min": null}}, {"type": "Feature", "geometry": {"type": "Point", "coordinates": [85.3777789, 28.2777749]}, "properties": {"place": "hamlet", "name:ne": "\u0930\u0938\u0941\u0935\u093e\u0917\u0922\u0940", "name": "\u0930\u0938\u0941\u0935\u093e\u0917\u0922\u0940", "name:en": "Rasuwa Gadhi", "osm_id": "node/992955542", "label": "Rasuwa Gadhi", "hospital_min_before": 46, "hospital_min_after": null, "town_min_before": 31, "town_min_after": null, "status": "cut_off", "hospital_on_foot_min": null}}, {"type": "Feature", "geometry": {"type": "Point", "coordinates": [85.3970476, 28.1625011]}, "properties": {"name": "\u0936\u0947\u0930\u094d\u092a\u093e\u0917\u093e\u0909\u0901", "name:en": "Sherpagaun", "name:ne": "\u0936\u0947\u0930\u094d\u092a\u093e\u0917\u093e\u0909\u0901", "place": "hamlet", "osm_id": "node/1547068160", "label": "Sherpagaun", "status": "no_mapped_road", "hospital_on_foot_min": null}}, {"type": "Feature", "geometry": {"type": "Point", "coordinates": [85.3365949, 28.3134218]}, "properties": {"place": "village", "name:en": "Jang", "name": "\u6c5f\u6751", "osm_id": "node/2524771371", "label": "Jang", "hospital_min_before": 67, "hospital_min_after": null, "town_min_before": 33, "town_min_after": 33, "status": "cut_off", "hospital_on_foot_min": null}}, {"type": "Feature", "geometry": {"type": "Point", "coordinates": [85.3666715, 28.2528483]}, "properties": {"place": "suburb", "name": "\u091f\u093f\u092e\u0941\u0930\u0947", "name:en": "Timure", "name:ne": "\u091f\u093f\u092e\u0941\u0930\u0947", "osm_id": "node/2553894641", "label": "Timure", "hospital_min_before": 41, "hospital_min_after": null, "town_min_before": 36, "town_min_after": null, "status": "cut_off", "hospital_on_foot_min": null}}, {"type": "Feature", "geometry": {"type": "Point", "coordinates": [85.338173, 28.210262]}, "properties": {"name": "\u0925\u0941\u092e\u0928", "name:en": "Thuman", "name:ne": "\u0925\u0941\u092e\u0928", "place": "suburb", "osm_id": "node/2553969983", "label": "Thuman", "status": "no_mapped_road", "hospital_on_foot_min": null}}, {"type": "Feature", "geometry": {"type": "Point", "coordinates": [85.2988204, 28.2200652]}, "properties": {"name": "\u0924\u093e\u0924\u094b\u092a\u093e\u0928\u0940", "name:en": "Tatopani", "name:ne": "\u0924\u093e\u0924\u094b\u092a\u093e\u0928\u0940", "place": "hamlet", "osm_id": "node/2554000784", "label": "Tatopani", "hospital_min_before": 87, "hospital_min_after": null, "town_min_before": 115, "town_min_after": null, "status": "cut_off", "hospital_on_foot_min": null}}, {"type": "Feature", "geometry": {"type": "Point", "coordinates": [85.3158331, 28.2079017]}, "properties": {"name": "\u0928\u093e\u0917\u0925\u0932\u0940", "name:en": "Nagthali", "name:ne": "\u0928\u093e\u0917\u0925\u0932\u0940", "place": "hamlet", "osm_id": "node/2554091027", "label": "Nagthali", "status": "no_mapped_road", "hospital_on_foot_min": null}}, {"type": "Feature", "geometry": {"type": "Point", "coordinates": [85.3576961, 28.2108549]}, "properties": {"name": "\u0932\u093f\u0919\u0932\u093f\u0919", "name:en": "Lingling", "name:ne": "\u0932\u093f\u0919\u0932\u093f\u0919", "place": "hamlet", "osm_id": "node/2554587303", "label": "Lingling", "hospital_min_before": 36, "hospital_min_after": null, "town_min_before": 46, "town_min_after": null, "status": "cut_off", "hospital_on_foot_min": null}}, {"type": "Feature", "geometry": {"type": "Point", "coordinates": [85.2977228, 28.1989194]}, "properties": {"name": "\u0917\u094b\u0919\u094d\u0917\u093e\u0919", "name:en": "Gongang", "name:ne": "\u0917\u094b\u0919\u094d\u0917\u093e\u0919", "place": "hamlet", "osm_id": "node/2772174431", "label": "Gongang", "status": "no_mapped_road", "hospital_on_foot_min": null}}, {"type": "Feature", "geometry": {"type": "Point", "coordinates": [85.3098914, 28.2036394]}, "properties": {"name": "\u092c\u094d\u0930\u093f\u092e\u0921\u093e\u0919", "name:en": "Brimdang", "name:ne": "\u092c\u094d\u0930\u093f\u092e\u0921\u093e\u0919", "place": "hamlet", "osm_id": "node/2772174479", "label": "Brimdang", "hospital_min_before": 92, "hospital_min_after": null, "town_min_before": 121, "town_min_after": null, "status": "cut_off", "hospital_on_foot_min": null}}, {"type": "Feature", "geometry": {"type": "Point", "coordinates": [85.3391559, 28.1435744]}, "properties": {"name": "\u092c\u094d\u0930\u093e\u092c\u0932", "name:en": "Brabal", "name:ne": "\u092c\u094d\u0930\u093e\u092c\u0932", "place": "village", "osm_id": "node/2820552513", "label": "Brabal", "hospital_min_before": 1, "hospital_min_after": 1, "town_min_before": null, "town_min_after": null, "status": "connected", "hospital_on_foot_min": 10}}, {"type": "Feature", "geometry": {"type": "Point", "coordinates": [85.3591359, 28.1768066]}, "properties": {"name": "\u0916\u093e\u0919\u091c\u093f\u092e", "name:en": "Khangjim", "name:ne": "\u0916\u093e\u0919\u091c\u093f\u092e", "place": "hamlet", "population": "300", "osm_id": "node/2828873676", "label": "Khangjim", "hospital_min_before": null, "hospital_min_after": null, "town_min_before": null, "town_min_after": null, "status": "no_mapped_road", "hospital_on_foot_min": null}}, {"type": "Feature", "geometry": {"type": "Point", "coordinates": [85.3697875, 28.1507701]}, "properties": {"name": "\u0921\u094b\u092e\u0947\u0928", "name:en": "Domen", "name:ne": "\u0921\u094b\u092e\u0947\u0928", "place": "isolated_dwelling", "osm_id": "node/2857841832", "label": "Domen", "hospital_min_before": 34, "hospital_min_after": null, "town_min_before": 62, "town_min_after": null, "status": "cut_off", "hospital_on_foot_min": 157}}, {"type": "Feature", "geometry": {"type": "Point", "coordinates": [85.2790735, 28.1164817]}, "properties": {"name": "\u0939\u093e\u0915\u0941 \u092c\u0947\u0938\u0940", "name:en": "Haku Besi", "name:ne": "\u0939\u093e\u0915\u0941 \u092c\u0947\u0938\u0940", "place": "hamlet", "osm_id": "node/3415530606", "label": "Haku Besi", "status": "no_mapped_road", "hospital_on_foot_min": null}}, {"type": "Feature", "geometry": {"type": "Point", "coordinates": [85.319707, 28.1374384]}, "properties": {"name": "\u0938\u093e\u0928\u093e\u0947 \u092d\u093e\u0930\u094d\u0916\u0941", "name:en": "Sano Bharkhu", "name:ne": "\u0938\u093e\u0928\u093e\u0947 \u092d\u093e\u0930\u094d\u0916\u0941", "place": "hamlet", "osm_id": "node/3415530630", "label": "Sano Bharkhu", "hospital_min_before": 18, "hospital_min_after": 18, "town_min_before": 66, "town_min_after": 91, "status": "connected", "hospital_on_foot_min": 64}}, {"type": "Feature", "geometry": {"type": "Point", "coordinates": [85.2701521, 28.1241718]}, "properties": {"name": "\u0938\u093e\u0928\u094b \u0939\u093e\u0915\u0941", "name:en": "Sano Haku", "name:ne": "\u0938\u093e\u0928\u094b \u0939\u093e\u0915\u0941", "place": "hamlet", "osm_id": "node/3415536482", "label": "Sano Haku", "status": "no_mapped_road", "hospital_on_foot_min": null}}, {"type": "Feature", "geometry": {"type": "Point", "coordinates": [85.353164, 28.2290052]}, "properties": {"name": "\u0921\u093e\u0932\u094d\u092b\u0947\u0921\u0940", "name:en": "Dalphedi", "name:ne": "\u0921\u093e\u0932\u094d\u092b\u0947\u0921\u0940", "place": "hamlet", "osm_id": "node/3415543901", "label": "Dalphedi", "status": "no_mapped_road", "hospital_on_foot_min": null}}, {"type": "Feature", "geometry": {"type": "Point", "coordinates": [85.2955714, 28.1424978]}, "properties": {"name": "\u0917\u094d\u0930\u0947", "name:en": "Gre", "name:ne": "\u0917\u094d\u0930\u0947", "place": "hamlet", "osm_id": "node/3415546447", "label": "Gre", "hospital_min_before": 78, "hospital_min_after": null, "town_min_before": 107, "town_min_after": null, "status": "cut_off", "hospital_on_foot_min": null}}, {"type": "Feature", "geometry": {"type": "Point", "coordinates": [85.3776014, 28.3113844]}, "properties": {"place": "isolated_dwelling", "osm_id": "node/3478596518", "label": null, "status": "no_mapped_road", "hospital_on_foot_min": null}}, {"type": "Feature", "geometry": {"type": "Point", "coordinates": [85.3421463, 28.2557551]}, "properties": {"name": "Dalgaun", "place": "hamlet", "osm_id": "node/3494541109", "label": "Dalgaun", "status": "no_mapped_road", "hospital_on_foot_min": null}}, {"type": "Feature", "geometry": {"type": "Point", "coordinates": [85.2705351, 28.2738214]}, "properties": {"name": "Duibe", "place": "locality", "osm_id": "node/3494541110", "label": "Duibe", "status": "no_mapped_road", "hospital_on_foot_min": null}}, {"type": "Feature", "geometry": {"type": "Point", "coordinates": [85.2837409, 28.2770166]}, "properties": {"place": "locality", "name": "Gairikharka", "osm_id": "node/3494541111", "label": "Gairikharka", "status": "no_mapped_road", "hospital_on_foot_min": null}}, {"type": "Feature", "geometry": {"type": "Point", "coordinates": [85.2789043, 28.2601914]}, "properties": {"name": "Garthali", "place": "locality", "osm_id": "node/3494541112", "label": "Garthali", "status": "no_mapped_road", "hospital_on_foot_min": null}}, {"type": "Feature", "geometry": {"type": "Point", "coordinates": [85.327268, 28.2752352]}, "properties": {"name": "Malabhanjyang", "place": "locality", "osm_id": "node/3494541115", "label": "Malabhanjyang", "status": "no_mapped_road", "hospital_on_foot_min": null}}, {"type": "Feature", "geometry": {"type": "Point", "coordinates": [85.2839865, 28.268421]}, "properties": {"name": "Panchokharka", "place": "locality", "osm_id": "node/3494541118", "label": "Panchokharka", "status": "no_mapped_road", "hospital_on_foot_min": null}}, {"type": "Feature", "geometry": {"type": "Point", "coordinates": [85.3158899, 28.1700191]}, "properties": {"name": "\u0917\u094b\u0932\u094d\u091c\u0941\u0919", "name:en": "Goljung", "name:ne": "\u0917\u094b\u0932\u094d\u091c\u0941\u0919", "place": "suburb", "osm_id": "node/3495699359", "label": "Goljung", "hospital_min_before": 49, "hospital_min_after": null, "town_min_before": 78, "town_min_after": null, "status": "cut_off", "hospital_on_foot_min": null}}, {"type": "Feature", "geometry": {"type": "Point", "coordinates": [85.2963163, 28.1753617]}, "properties": {"name:en": "Chyamdole", "name:ne": "\u091a\u094d\u092f\u093e\u092e \u0921\u094b\u0932", "place": "hamlet", "osm_id": "node/3495699360", "label": "Chyamdole", "status": "no_mapped_road", "hospital_on_foot_min": null}}, {"type": "Feature", "geometry": {"type": "Point", "coordinates": [85.2865329, 28.2049281]}, "properties": {"place": "hamlet", "osm_id": "node/3495750389", "label": null, "hospital_min_before": 69, "hospital_min_after": null, "town_min_before": 98, "town_min_after": null, "status": "cut_off", "hospital_on_foot_min": null}}, {"type": "Feature", "geometry": {"type": "Point", "coordinates": [85.2814438, 28.21507]}, "properties": {"name": "\u0924\u0947\u091f\u093e\u0919\u091a\u0947\u091f", "name:en": "Tetanchet", "name:ne": "\u0924\u0947\u091f\u093e\u0919\u091a\u0947\u091f", "place": "hamlet", "osm_id": "node/3495750390", "label": "Tetanchet", "hospital_min_before": 74, "hospital_min_after": null, "town_min_before": 103, "town_min_after": null, "status": "cut_off", "hospital_on_foot_min": null}}, {"type": "Feature", "geometry": {"type": "Point", "coordinates": [85.3108159, 28.1937659]}, "properties": {"place": "village", "osm_id": "node/3495750391", "label": null, "status": "no_mapped_road", "hospital_on_foot_min": null}}, {"type": "Feature", "geometry": {"type": "Point", "coordinates": [85.31696, 28.1877393]}, "properties": {"name": "\u092d\u094d\u0930\u091c\u092e", "name:en": "Bhrajam", "name:ne": "\u092d\u094d\u0930\u091c\u092e", "place": "hamlet", "osm_id": "node/3495754793", "label": "Bhrajam", "hospital_min_before": 41, "hospital_min_after": null, "town_min_before": 63, "town_min_after": null, "status": "cut_off", "hospital_on_foot_min": null}}, {"type": "Feature", "geometry": {"type": "Point", "coordinates": [85.3606919, 28.1430447]}, "properties": {"name": "\u0920\u0941\u0932\u094b \u0938\u094d\u092f\u093e\u092a\u094d\u0930\u0941", "name:en": "Thulo Sy\u0101bru", "name:ne": "\u0920\u0941\u0932\u094b \u0938\u094d\u092f\u093e\u092a\u094d\u0930\u0941", "place": "hamlet", "osm_id": "node/3495857671", "label": "Thulo Sy\u0101bru", "hospital_min_before": 9, "hospital_min_after": 9, "town_min_before": null, "town_min_after": null, "status": "connected", "hospital_on_foot_min": 77}}, {"type": "Feature", "geometry": {"type": "Point", "coordinates": [85.3460492, 28.1767813]}, "properties": {"place": "hamlet", "osm_id": "node/3510164368", "label": null, "hospital_min_before": 33, "hospital_min_after": null, "town_min_before": 54, "town_min_after": null, "status": "cut_off", "hospital_on_foot_min": null}}, {"type": "Feature", "geometry": {"type": "Point", "coordinates": [85.3669534, 28.199502]}, "properties": {"name:en": "Bridhim", "name": "\u092c\u0943\u0926\u094d\u200c\u0927\u093f\u092e", "name:ne": "\u092c\u0943\u0926\u094d\u200c\u0927\u093f\u092e", "place": "suburb", "osm_id": "node/4968010288", "label": "Bridhim", "status": "no_mapped_road", "hospital_on_foot_min": null}}, {"type": "Feature", "geometry": {"type": "Point", "coordinates": [85.378218, 28.280321]}, "properties": {"name:en": "Resuo", "name": "\u70ed\u7d22", "place": "village", "osm_id": "node/5086621424", "label": "Resuo", "hospital_min_before": 47, "hospital_min_after": null, "town_min_before": 31, "town_min_after": null, "status": "cut_off", "hospital_on_foot_min": null}}, {"type": "Feature", "geometry": {"type": "Point", "coordinates": [85.2810647, 28.1312515]}, "properties": {"name": "\u092a\u093e\u0919\u0932\u093f\u0919", "name:en": "Pangling", "name:ne": "\u092a\u093e\u0919\u0932\u093f\u0919", "place": "hamlet", "osm_id": "node/5411466640", "label": "Pangling", "status": "no_mapped_road", "hospital_on_foot_min": null}}, {"type": "Feature", "geometry": {"type": "Point", "coordinates": [85.3047153, 28.1104105]}, "properties": {"name": "National Rainbow Trout Research Station, Dhunche", "place": "hamlet", "osm_id": "node/10207187270", "label": "National Rainbow Trout Research Station, Dhunche", "hospital_min_before": 7, "hospital_min_after": 7, "town_min_before": 73, "town_min_after": 80, "status": "connected", "hospital_on_foot_min": 43}}, {"type": "Feature", "geometry": {"type": "Point", "coordinates": [85.302123, 28.1123859]}, "properties": {"name": "Pasture and Fodder Research Station, Dhunche", "place": "hamlet", "osm_id": "node/10207223745", "label": "Pasture and Fodder Research Station, Dhunche", "hospital_min_before": 7, "hospital_min_after": 7, "town_min_before": 74, "town_min_after": 81, "status": "connected", "hospital_on_foot_min": 50}}, {"type": "Feature", "geometry": {"type": "Point", "coordinates": [85.2960583, 28.1127948]}, "properties": {"name": "\u0927\u0941\u0928\u094d\u091a\u0947", "name:en": "Dhunche", "name:ne": "\u0927\u0941\u0928\u094d\u091a\u0947", "place": "suburb", "osm_id": "node/10315965426", "label": "Dhunche", "hospital_min_before": 4, "hospital_min_after": 4, "town_min_before": 75, "town_min_after": 76, "status": "connected", "hospital_on_foot_min": 6}}, {"type": "Feature", "geometry": {"type": "Point", "coordinates": [85.3712348, 28.1000905]}, "properties": {"name": "\u091a\u094b\u0932\u093e\u0919\u092a\u093e\u091f\u0940", "name:en": "Chalangpati", "name:ne": "\u091a\u094b\u0932\u093e\u0919\u092a\u093e\u091f\u0940", "place": "isolated_dwelling", "osm_id": "node/10794813511", "label": "Chalangpati", "status": "no_mapped_road", "hospital_on_foot_min": 200}}, {"type": "Feature", "geometry": {"type": "Point", "coordinates": [85.3275558, 28.1860282]}, "properties": {"name": "\u092a\u093e\u091c\u0941\u0919", "name:en": "Pajung", "name:ne": "\u092a\u093e\u091c\u0941\u0919", "place": "hamlet", "osm_id": "node/10833649292", "label": "Pajung", "hospital_min_before": 38, "hospital_min_after": null, "town_min_before": 59, "town_min_after": null, "status": "cut_off", "hospital_on_foot_min": null}}, {"type": "Feature", "geometry": {"type": "Point", "coordinates": [85.3979245, 28.1550205]}, "properties": {"name": "Bamboo", "place": "isolated_dwelling", "osm_id": "node/11186154602", "label": "Bamboo", "status": "no_mapped_road", "hospital_on_foot_min": null}}, {"type": "Feature", "geometry": {"type": "Point", "coordinates": [85.3564171, 28.1538237]}, "properties": {"name": "\u0924\u093f\u0935\u093e\u0930\u0940", "name:en": "Tiwari", "name:ne": "\u0924\u093f\u0935\u093e\u0930\u0940", "place": "isolated_dwelling", "osm_id": "node/11186154603", "label": "Tiwari", "hospital_min_before": 31, "hospital_min_after": null, "town_min_before": 59, "town_min_after": null, "status": "cut_off", "hospital_on_foot_min": null}}, {"type": "Feature", "geometry": {"type": "Point", "coordinates": [85.3551981, 28.1686192]}, "properties": {"name": "\u092d\u091e\u094d\u091c\u094d\u092f\u093e\u0919", "name:en": "Bhanjyang", "name:ne": "\u092d\u091e\u094d\u091c\u094d\u092f\u093e\u0919", "place": "hamlet", "osm_id": "node/11186154604", "label": "Bhanjyang", "hospital_min_before": 50, "hospital_min_after": null, "town_min_before": 71, "town_min_after": null, "status": "cut_off", "hospital_on_foot_min": null}}, {"type": "Feature", "geometry": {"type": "Point", "coordinates": [85.3619339, 28.1710681]}, "properties": {"name": "\u0938\u0941\u0930\u094d\u0915\u093e", "name:en": "Surka", "name:ne": "\u0938\u0941\u0930\u094d\u0915\u093e", "place": "hamlet", "osm_id": "node/11186154605", "label": "Surka", "hospital_min_before": null, "hospital_min_after": null, "town_min_before": null, "town_min_after": null, "status": "no_mapped_road", "hospital_on_foot_min": null}}, {"type": "Feature", "geometry": {"type": "Point", "coordinates": [85.3780827, 28.1522344]}, "properties": {"name": "\u092a\u0948\u0930\u094b", "name:en": "Pairo", "name:ne": "\u092a\u0948\u0930\u094b", "place": "isolated_dwelling", "osm_id": "node/11186154608", "label": "Pairo", "status": "no_mapped_road", "hospital_on_foot_min": null}}, {"type": "Feature", "geometry": {"type": "Point", "coordinates": [85.3130932, 28.1705778]}, "properties": {"name": "\u0906\u092e\u093e\u091b\u094b\u0926\u093f\u0919\u094d\u092e\u094b", "name:en": "Aamachhodingmo", "name:ne": "\u0906\u092e\u093e\u091b\u094b\u0926\u093f\u0919\u094d\u092e\u094b", "place": "village", "osm_id": "node/13242877442", "label": "Aamachhodingmo", "hospital_min_before": 50, "hospital_min_after": null, "town_min_before": 79, "town_min_after": null, "status": "cut_off", "hospital_on_foot_min": null}}, {"type": "Feature", "geometry": {"type": "Point", "coordinates": [85.2737453, 28.1255051]}, "properties": {"name": "\u0939\u093e\u0915\u0942", "name:en": "Haku", "name:ne": "\u0939\u093e\u0915\u0942", "place": "suburb", "osm_id": "node/13242877443", "label": "Haku", "status": "no_mapped_road", "hospital_on_foot_min": null}}, {"type": "Feature", "geometry": {"type": "Point", "coordinates": [85.3022373, 28.1836181]}, "properties": {"name": "\u091a\u093f\u0932\u093f\u092e\u0947", "name:en": "Chilime", "name:ne": "\u091a\u093f\u0932\u093f\u092e\u0947", "place": "suburb", "osm_id": "node/13242877444", "label": "Chilime", "hospital_min_before": 57, "hospital_min_after": null, "town_min_before": 86, "town_min_after": null, "status": "cut_off", "hospital_on_foot_min": null}}, {"type": "Feature", "geometry": {"type": "Point", "coordinates": [85.298525, 28.110361]}, "properties": {"name": "\u0917\u094b\u0938\u093e\u0907\u0901\u0915\u0941\u0923\u094d\u0921", "name:en": "Gosaikunda", "name:ne": "\u0917\u094b\u0938\u093e\u0907\u0901\u0915\u0941\u0923\u094d\u0921", "place": "village", "osm_id": "node/13242877445", "label": "Gosaikunda", "hospital_min_before": 1, "hospital_min_after": 1, "town_min_before": 77, "town_min_after": 79, "status": "connected", "hospital_on_foot_min": 5}}, {"type": "Feature", "geometry": {"type": "Point", "coordinates": [85.2711792, 28.3192325]}, "properties": {"name": "\u57fa\u901a", "place": "locality", "osm_id": "node/13308251153", "label": "\u57fa\u901a", "status": "no_mapped_road", "hospital_on_foot_min": null}}, {"type": "Feature", "geometry": {"type": "Point", "coordinates": [85.3599371, 28.3150027]}, "properties": {"name": "\u5353\u5f53", "place": "locality", "osm_id": "node/13308251154", "label": "\u5353\u5f53", "status": "no_mapped_road", "hospital_on_foot_min": null}}]}